ONEWEB-0694             
1 56722U 23068N   23306.85039546  .00002984  00000+0  40558-3 0  9992
2 56722  86.7238  72.3179 0014735  10.1590 349.9925 14.78415733 24722
ONEWEB-0696             
1 56723U 23068P   23306.91262515  .00035571  00000+0  77487-1 0  9991
2 56723  88.0121  89.7970 0002691  24.5679 335.5586 13.28605309 23496
ONEWEB-0703             
1 56724U 23068Q   23306.84779436  .00000339  00000+0  86599-3 0  9999
2 56724  87.8988  89.8307 0002063  55.0139 305.1185 13.15546055 23387
ONEWEB-0721             
1 56725U 23068R   23306.85558747  .00003697  00000+0  44657-3 0  9990
2 56725  86.6767  71.0085 0010846   9.8599 350.2835 14.83458834 24793
